[{"OBJECT_NAME":"FLOCK 4BE-17","OBJECT_ID":"2024-149AA","EPOCH":"2026-04-26T12:43:51.458016","MEAN_MOTION":15.38255587,"ECCENTRICITY":0.0004461,"INCLINATION":97.3776,"RA_OF_ASC_NODE":199.5531,"ARG_OF_PERICENTER":97.9496,"MEAN_ANOMALY":262.2255,"EPHEMERIS_TYPE":0,"CLASSIFICATION_TYPE":"U","NORAD_CAT_ID":60492,"ELEMENT_SET_NO":999,"REV_AT_EPOCH":9431,"BSTAR":0.00051895,"MEAN_MOTION_DOT":0.00019509,"MEAN_MOTION_DDOT":0},{"OBJECT_NAME":"NUSAT-50 (NANCY ROMAN)","OBJECT_ID":"2024-149AB","EPOCH":"2026-04-26T11:31:57.031680","MEAN_MOTION":15.28945292,"ECCENTRICITY":0.0003962,"INCLINATION":97.379,"RA_OF_ASC_NODE":198.1324,"ARG_OF_PERICENTER":45.5844,"MEAN_ANOMALY":314.572,"EPHEMERIS_TYPE":0,"CLASSIFICATION_TYPE":"U","NORAD_CAT_ID":60493,"ELEMENT_SET_NO":999,"REV_AT_EPOCH":9422,"BSTAR":0.00040062,"MEAN_MOTION_DOT":0.00011196,"MEAN_MOTION_DDOT":0},{"OBJECT_NAME":"FLOCK 4BE-22","OBJECT_ID":"2024-149AC","EPOCH":"2026-04-26T11:48:58.572576","MEAN_MOTION":15.39570692,"ECCENTRICITY":0.0005066,"INCLINATION":97.3732,"RA_OF_ASC_NODE":199.6282,"ARG_OF_PERICENTER":103.1318,"MEAN_ANOMALY":257.0493,"EPHEMERIS_TYPE":0,"CLASSIFICATION_TYPE":"U","NORAD_CAT_ID":60494,"ELEMENT_SET_NO":999,"REV_AT_EPOCH":9434,"BSTAR":0.00051749,"MEAN_MOTION_DOT":0.00020311,"MEAN_MOTION_DDOT":0},{"OBJECT_NAME":"FLOCK 4BE-34","OBJECT_ID":"2024-149AD","EPOCH":"2026-04-26T12:15:08.115840","MEAN_MOTION":15.39642314,"ECCENTRICITY":0.0005383,"INCLINATION":97.3781,"RA_OF_ASC_NODE":200.434,"ARG_OF_PERICENTER":110.0836,"MEAN_ANOMALY":250.099,"EPHEMERIS_TYPE":0,"CLASSIFICATION_TYPE":"U","NORAD_CAT_ID":60495,"ELEMENT_SET_NO":999,"REV_AT_EPOCH":9437,"BSTAR":0.00051252,"MEAN_MOTION_DOT":0.00020164,"MEAN_MOTION_DDOT":0},{"OBJECT_NAME":"TYCHE","OBJECT_ID":"2024-149AE","EPOCH":"2026-04-26T11:01:12.073728","MEAN_MOTION":15.25821851,"ECCENTRICITY":0.0004716,"INCLINATION":97.3761,"RA_OF_ASC_NODE":194.9705,"ARG_OF_PERICENTER":102.045,"MEAN_ANOMALY":258.1317,"EPHEMERIS_TYPE":0,"CLASSIFICATION_TYPE":"U","NORAD_CAT_ID":60496,"ELEMENT_SET_NO":999,"REV_AT_EPOCH":9401,"BSTAR":0.00022073,"MEAN_MOTION_DOT":5.574e-5,"MEAN_MOTION_DDOT":0},{"OBJECT_NAME":"FLOCK 4BE-32","OBJECT_ID":"2024-149AF","EPOCH":"2026-04-25T19:02:26.978784","MEAN_MOTION":15.40353946,"ECCENTRICITY":0.00053042,"INCLINATION":97.3719,"RA_OF_ASC_NODE":199.2283,"ARG_OF_PERICENTER":109.9074,"MEAN_ANOMALY":250.2745,"EPHEMERIS_TYPE":0,"CLASSIFICATION_TYPE":"U","NORAD_CAT_ID":60497,"ELEMENT_SET_NO":999,"REV_AT_EPOCH":9426,"BSTAR":0.00041710369,"MEAN_MOTION_DOT":0.00016775,"MEAN_MOTION_DDOT":0},{"OBJECT_NAME":"NUSAT-48 (HENRIETTA LEAVITT)","OBJECT_ID":"2024-149AG","EPOCH":"2026-04-26T11:42:44.629056","MEAN_MOTION":15.29919796,"ECCENTRICITY":0.0005483,"INCLINATION":97.3901,"RA_OF_ASC_NODE":198.2565,"ARG_OF_PERICENTER":100.5999,"MEAN_ANOMALY":259.5859,"EPHEMERIS_TYPE":0,"CLASSIFICATION_TYPE":"U","NORAD_CAT_ID":60498,"ELEMENT_SET_NO":999,"REV_AT_EPOCH":9423,"BSTAR":0.00042433,"MEAN_MOTION_DOT":0.00012228,"MEAN_MOTION_DDOT":0},{"OBJECT_NAME":"FLOCK 4BE-30","OBJECT_ID":"2024-149AH","EPOCH":"2026-04-26T12:05:03.865344","MEAN_MOTION":15.4582023,"ECCENTRICITY":0.0003599,"INCLINATION":97.379,"RA_OF_ASC_NODE":200.7459,"ARG_OF_PERICENTER":167.2904,"MEAN_ANOMALY":192.8437,"EPHEMERIS_TYPE":0,"CLASSIFICATION_TYPE":"U","NORAD_CAT_ID":60499,"ELEMENT_SET_NO":999,"REV_AT_EPOCH":9376,"BSTAR":0.002242,"MEAN_MOTION_DOT":0.00110014,"MEAN_MOTION_DDOT":0},{"OBJECT_NAME":"NUSAT-49 (KLARA DAN VON NEUMANN)","OBJECT_ID":"2024-149AJ","EPOCH":"2026-04-26T11:17:15.406944","MEAN_MOTION":15.29953851,"ECCENTRICITY":0.0004299,"INCLINATION":97.3781,"RA_OF_ASC_NODE":198.1075,"ARG_OF_PERICENTER":110.4708,"MEAN_ANOMALY":249.6994,"EPHEMERIS_TYPE":0,"CLASSIFICATION_TYPE":"U","NORAD_CAT_ID":60500,"ELEMENT_SET_NO":999,"REV_AT_EPOCH":9422,"BSTAR":0.00039834,"MEAN_MOTION_DOT":0.00011484,"MEAN_MOTION_DDOT":0},{"OBJECT_NAME":"FLOCK 4BE-11","OBJECT_ID":"2024-149AK","EPOCH":"2026-04-26T12:44:26.094048","MEAN_MOTION":15.41237641,"ECCENTRICITY":0.000536,"INCLINATION":97.37,"RA_OF_ASC_NODE":200.1501,"ARG_OF_PERICENTER":107.4491,"MEAN_ANOMALY":252.7342,"EPHEMERIS_TYPE":0,"CLASSIFICATION_TYPE":"U","NORAD_CAT_ID":60501,"ELEMENT_SET_NO":999,"REV_AT_EPOCH":9439,"BSTAR":0.00053099,"MEAN_MOTION_DOT":0.00022027,"MEAN_MOTION_DDOT":0},{"OBJECT_NAME":"FLOCK 4BE-33","OBJECT_ID":"2024-149AL","EPOCH":"2026-04-25T18:19:55.937568","MEAN_MOTION":15.89833689,"ECCENTRICITY":0.00038573,"INCLINATION":97.3588,"RA_OF_ASC_NODE":203.2101,"ARG_OF_PERICENTER":216.9833,"MEAN_ANOMALY":143.1175,"EPHEMERIS_TYPE":0,"CLASSIFICATION_TYPE":"U","NORAD_CAT_ID":60502,"ELEMENT_SET_NO":999,"REV_AT_EPOCH":9452,"BSTAR":0.0015860957,"MEAN_MOTION_DOT":0.00466893,"MEAN_MOTION_DDOT":8.4087611e-5},{"OBJECT_NAME":"YAM-7","OBJECT_ID":"2024-149AN","EPOCH":"2026-04-26T12:05:49.310016","MEAN_MOTION":15.31082833,"ECCENTRICITY":0.0005043,"INCLINATION":97.3788,"RA_OF_ASC_NODE":196.9918,"ARG_OF_PERICENTER":112.7528,"MEAN_ANOMALY":247.4246,"EPHEMERIS_TYPE":0,"CLASSIFICATION_TYPE":"U","NORAD_CAT_ID":60504,"ELEMENT_SET_NO":999,"REV_AT_EPOCH":9414,"BSTAR":0.00031174,"MEAN_MOTION_DOT":9.289e-5,"MEAN_MOTION_DDOT":0},{"OBJECT_NAME":"FLOCK 4BE-24","OBJECT_ID":"2024-149AP","EPOCH":"2026-04-25T16:08:47.626080","MEAN_MOTION":15.41090252,"ECCENTRICITY":0.00054611,"INCLINATION":97.3717,"RA_OF_ASC_NODE":199.5299,"ARG_OF_PERICENTER":118.1449,"MEAN_ANOMALY":242.035,"EPHEMERIS_TYPE":0,"CLASSIFICATION_TYPE":"U","NORAD_CAT_ID":60505,"ELEMENT_SET_NO":999,"REV_AT_EPOCH":9427,"BSTAR":0.00047091046,"MEAN_MOTION_DOT":0.00019424,"MEAN_MOTION_DDOT":0},{"OBJECT_NAME":"LUR-1","OBJECT_ID":"2024-149AQ","EPOCH":"2026-04-25T18:47:25.513152","MEAN_MOTION":15.29398305,"ECCENTRICITY":0.00055816,"INCLINATION":97.3746,"RA_OF_ASC_NODE":195.0173,"ARG_OF_PERICENTER":122.636,"MEAN_ANOMALY":237.542,"EPHEMERIS_TYPE":0,"CLASSIFICATION_TYPE":"U","NORAD_CAT_ID":60506,"ELEMENT_SET_NO":999,"REV_AT_EPOCH":9396,"BSTAR":0.00025874567,"MEAN_MOTION_DOT":7.304e-5,"MEAN_MOTION_DDOT":0},{"OBJECT_NAME":"TANAGER-1","OBJECT_ID":"2024-149AR","EPOCH":"2026-04-25T19:35:11.553216","MEAN_MOTION":15.44257878,"ECCENTRICITY":0.00075971,"INCLINATION":97.3468,"RA_OF_ASC_NODE":209.7998,"ARG_OF_PERICENTER":130.075,"MEAN_ANOMALY":230.1165,"EPHEMERIS_TYPE":0,"CLASSIFICATION_TYPE":"U","NORAD_CAT_ID":60507,"ELEMENT_SET_NO":999,"REV_AT_EPOCH":9495,"BSTAR":0.00031949582,"MEAN_MOTION_DOT":0.00014624,"MEAN_MOTION_DDOT":0},{"OBJECT_NAME":"EAGLEEYE","OBJECT_ID":"2024-149AS","EPOCH":"2026-04-26T05:46:00.782112","MEAN_MOTION":15.62991716,"ECCENTRICITY":0.0003305,"INCLINATION":97.3728,"RA_OF_ASC_NODE":207.0536,"ARG_OF_PERICENTER":113.2757,"MEAN_ANOMALY":246.885,"EPHEMERIS_TYPE":0,"CLASSIFICATION_TYPE":"U","NORAD_CAT_ID":60508,"ELEMENT_SET_NO":999,"REV_AT_EPOCH":9480,"BSTAR":0.00083395,"MEAN_MOTION_DOT":0.00076041,"MEAN_MOTION_DDOT":0}]
